NILESAT 301             
1 52817U 22061A   22186.94402466 -.00000037  00000+0  00000+0 0  9997
2 52817   0.0228  13.8993 0006615  44.0267 198.8194  1.00321109   277
FALCON 9 R/B            
1 52818U 22061B   22185.67840757  .00005533  00000+0  63751-2 0  9996
2 52818  18.7540  38.0087 7694999 192.3350 122.5402  1.75880438   452
STARLINK-4091           
1 52830U 22062A   22186.58334491 -.00118160  00000+0 -84630-3 0  9998
2 52830  53.2151 315.5167 0001606  48.4998 288.2363 15.73282548  1301
STARLINK-4089           
1 52831U 22062B   22186.58334491 -.00147370  00000+0 -10571-2 0  9996
2 52831  53.2153 315.5210 0001595  36.1725 298.6810 15.73352115  1302
STARLINK-4083           
1 52832U 22062C   22186.58334491 -.00124539  00000+0 -89258-3 0  9998
2 52832  53.2151 315.5192 0001487  39.9203 295.6045 15.73291257  1308
STARLINK-4086           
1 52833U 22062D   22186.91667824 -.00077581  00000+0 -55234-3 0  9996
2 52833  53.2155 313.8710 0001631  30.4849  34.5725 15.73245936  2919
STARLINK-4108           
1 52834U 22062E   22186.58334491 -.00109885  00000+0 -78545-3 0  9994
2 52834  53.2150 315.5146 0001520  37.5212 299.7973 15.73297582  1302
STARLINK-4080           
1 52835U 22062F   22186.91667824 -.00063503  00000+0 -45157-3 0  9990
2 52835  53.2154 313.8669 0001552  31.7429  35.2124 15.73193556  2914
STARLINK-4043           
1 52836U 22062G   22186.58334491 -.00090913  00000+0 -64798-3 0  9992
2 52836  53.2150 315.5133 0001616  39.6627 298.8078 15.73284146  1307
STARLINK-4036           
1 52837U 22062H   22186.58334491 -.00126963  00000+0 -91047-3 0  9995
2 52837  53.2150 315.5097 0001556  40.5120 299.7730 15.73286760  1308
STARLINK-4092           
1 52838U 22062J   22186.58334491 -.00123639  00000+0 -88522-3 0  9997
2 52838  53.2152 315.5130 0001629  36.9918 302.0420 15.73311382  1307
STARLINK-4048           
1 52839U 22062K   22186.91667824 -.00101722  00000+0 -72732-3 0  9999
2 52839  53.2155 313.8588 0001651  31.8867  38.5542 15.73257002  3396
STARLINK-4049           
1 52840U 22062L   22186.91667824 -.00261440  00000+0 -19081-2 0  9992
2 52840  53.2153 313.8595 0001943  36.0921  33.8025 15.73302832  3392
STARLINK-4065           
1 52841U 22062M   22186.91667824 -.00242411  00000+0 -17660-2 0  9991
2 52841  53.2157 313.8560 0001665  43.0108  29.2897 15.73290140  3399
STARLINK-4046           
1 52842U 22062N   22186.91667824 -.00026705  00000+0 -18640-3 0  9998
2 52842  53.2155 313.8618 0001641  38.1283  30.6181 15.73205836  3395
STARLINK-4188           
1 52843U 22062P   22186.58334491 -.00068820  00000+0 -48854-3 0  9997
2 52843  53.2156 315.5032 0001360  47.1116 297.3375 15.73266519  1300
STARLINK-4208           
1 52844U 22062Q   22186.58334491 -.00137846  00000+0 -98929-3 0  9991
2 52844  53.2152 315.5063 0001567  36.4435 305.6310 15.73307410  1303
STARLINK-4168           
1 52845U 22062R   22186.58334491 -.00153620  00000+0 -11053-2 0  9992
2 52845  53.2148 315.4992 0001446  53.3468 291.7699 15.73302767  1304
STARLINK-4212           
1 52846U 22062S   22186.58334491 -.00130472  00000+0 -93637-3 0  9992
2 52846  53.2152 315.5033 0001474  32.5595 311.4001 15.73281440  1309
STARLINK-4206           
1 52847U 22062T   22186.58334491 -.00141461  00000+0 -10141-2 0  9991
2 52847  53.2155 315.5002 0001649  35.4675 310.7309 15.73345698  1303
STARLINK-4202           
1 52848U 22062U   22186.58334491 -.00123820  00000+0 -88584-3 0  9998
2 52848  53.2151 315.5049 0001639  44.0481 298.6098 15.73329646  1305
STARLINK-4197           
1 52849U 22062V   22186.58334491 -.00161003  00000+0 -11580-2 0  9995
2 52849  53.2152 315.4962 0001693  46.8935 300.4963 15.73334860  1301
STARLINK-4187           
1 52850U 22062W   22186.91667824 -.00046474  00000+0 -32791-3 0  9995
2 52850  53.2154 313.8506 0001730  36.1555  38.4605 15.73243037  3390
STARLINK-3809           
1 52851U 22062X   22186.91667824 -.00042619  00000+0 -30083-3 0  9995
2 52851  53.2150 313.8452 0001653  30.4800  46.6127 15.73194812  3397
STARLINK-4184           
1 52852U 22062Y   22186.91667824 -.00036670  00000+0 -25776-3 0  9999
2 52852  53.2154 313.8476 0001796  37.6574  38.2239 15.73219462  3393
STARLINK-4189           
1 52853U 22062Z   22186.58334491 -.00120624  00000+0 -86508-3 0  9997
2 52853  53.2156 315.4938 0001595  44.0212 305.2676 15.73261437  1305
STARLINK-4204           
1 52854U 22062AA  22186.58334491 -.00136116  00000+0 -97636-3 0  9995
2 52854  53.2153 315.4935 0001667  46.2112 302.3794 15.73313188  1303
STARLINK-4209           
1 52855U 22062AB  22186.58334491 -.00148925  00000+0 -10709-2 0  9992
2 52855  53.2157 315.4908 0001521  40.9076 310.1966 15.73300090  1303
STARLINK-4201           
1 52856U 22062AC  22186.91667824 -.00091802  00000+0 -65628-3 0  9991
2 52856  53.2157 313.8420 0001602  30.3145  48.4972 15.73218430  3390
STARLINK-4199           
1 52857U 22062AD  22186.58334491 -.00093872  00000+0 -67019-3 0  9991
2 52857  53.2153 315.4873 0001635  38.9300 313.3073 15.73258409  1305
STARLINK-4198           
1 52858U 22062AE  22186.58334491 -.00138994  00000+0 -99850-3 0  9995
2 52858  53.2152 315.4898 0001512  48.1292 302.4024 15.73289035  1303
STARLINK-4196           
1 52859U 22062AF  22186.58334491 -.00138249  00000+0 -99207-3 0  9995
2 52859  53.2157 315.4876 0001648  38.8653 313.9624 15.73311079  1309
STARLINK-4191           
1 52860U 22062AG  22186.58334491 -.00136619  00000+0 -98060-3 0  9992
2 52860  53.2155 315.4885 0001498  28.2103 323.4464 15.73300541  1305
STARLINK-4112           
1 52861U 22062AH  22186.91667824 -.00025903  00000+0 -18061-3 0  9995
2 52861  53.2153 313.8301 0001561  41.3552  43.4114 15.73211594  3395
STARLINK-4010           
1 52862U 22062AJ  22186.58334491 -.00139003  00000+0 -99768-3 0  9990
2 52862  53.2148 315.4825 0001506  37.7250 315.7486 15.73309615  1300
STARLINK-4270           
1 52863U 22062AK  22186.58334491 -.00147393  00000+0 -10588-2 0  9994
2 52863  53.2154 315.4828 0001556  38.7725 315.8212 15.73318608  1304
STARLINK-4267           
1 52864U 22062AL  22186.58334491 -.00097838  00000+0 -69944-3 0  9994
2 52864  53.2158 315.4849 0001544  33.9168 320.0998 15.73244808  1306
STARLINK-4274           
1 52865U 22062AM  22186.58334491 -.00159258  00000+0 -11467-2 0  9996
2 52865  53.2151 315.4769 0001574  38.4277 318.6221 15.73304242  1306
STARLINK-4272           
1 52866U 22062AN  22186.58334491 -.00123398  00000+0 -88439-3 0  9997
2 52866  53.2152 315.4808 0001583  48.1708 307.0693 15.73287096  1301
STARLINK-4126           
1 52867U 22062AP  22186.58334491 -.00147625  00000+0 -10601-2 0  9992
2 52867  53.2153 315.4754 0001584  42.7922 315.3559 15.73327351  1304
STARLINK-4261           
1 52868U 22062AQ  22186.91667824 -.00095100  00000+0 -67942-3 0  9990
2 52868  53.2151 313.8279 0001619  38.5599  46.8336 15.73247991  3390
STARLINK-4266           
1 52869U 22062AR  22186.58334491 -.00127327  00000+0 -91378-3 0  9992
2 52869  53.2158 315.4755 0001613  37.4951 321.3418 15.73270077  1301
STARLINK-4195           
1 52870U 22062AS  22186.91667824 -.00106486  00000+0 -76255-3 0  9990
2 52870  53.2155 313.8265 0001703  34.0402  52.5559 15.73240869  3398
STARLINK-4207           
1 52871U 22062AT  22186.58334491 -.00137137  00000+0 -98534-3 0  9996
2 52871  53.2151 315.4696 0001379  35.9095 324.7553 15.73278732  1316
STARLINK-4213           
1 52872U 22062AU  22186.58334491 -.00060100  00000+0 -42600-3 0  9995
2 52872  53.2150 315.4719 0001473  42.3338 316.9993 15.73246340  1309
STARLINK-4211           
1 52873U 22062AV  22186.58334491 -.00137536  00000+0 -98858-3 0  9990
2 52873  53.2152 315.4683 0001588  41.4632 320.3635 15.73270565  1315
STARLINK-4210           
1 52874U 22062AW  22186.58334491 -.00079453  00000+0 -56585-3 0  9995
2 52874  53.2151 315.4709 0001649  36.2610 323.6773 15.73247891  1304
STARLINK-4193           
1 52875U 22062AX  22186.58334491 -.00138374  00000+0 -99442-3 0  9993
2 52875  53.2152 315.4668 0001457  28.3193 334.1115 15.73278286  1304
STARLINK-4200           
1 52876U 22062AY  22186.58334491 -.00136469  00000+0 -98100-3 0  9997
2 52876  53.2152 315.4687 0001642  42.0583 319.2294 15.73264418  1313
STARLINK-4214           
1 52877U 22062AZ  22186.91667824 -.00183761  00000+0 -13307-2 0  9996
2 52877  53.2156 313.8153 0001673  41.6586  50.8938 15.73250405  3394
STARLINK-4171           
1 52878U 22062BA  22186.58334491 -.00127499  00000+0 -91559-3 0  9993
2 52878  53.2152 315.4653 0001571  38.5054 324.5593 15.73256255  1302
STARLINK-4139           
1 52879U 22062BB  22186.58334491 -.00128057  00000+0 -91896-3 0  9999
2 52879  53.2153 315.4613 0001471  37.3988 328.0192 15.73274658  1303
STARLINK-4186           
1 52880U 22062BC  22186.91667824 -.00155968  00000+0 -11261-2 0  9995
2 52880  53.2153 313.8119 0001768  42.3198  51.4518 15.73228646  3392
STARLINK-4192           
1 52881U 22062BD  22186.58334491 -.00134105  00000+0 -96289-3 0  9994
2 52881  53.2156 315.4643 0001531  38.2090 326.0137 15.73283481  1304
STARLINK-4181           
1 52882U 22062BE  22186.58334491 -.00131031  00000+0 -93838-3 0  9997
2 52882  53.2157 315.4616 0001467  26.9681 338.7955 15.73333096  1300
FALCON 9 DEB            
1 52883U 22062BF  22186.89354920  .02161647  11964-4  63146-3 0  9992
2 52883  53.2145 310.8711 0024389  99.9685 260.4112 16.25668751  2949
FALCON 9 DEB            
1 52884U 22062BG  22186.88903482  .01949363  11948-4  61174-3 0  9994
2 52884  53.2047 310.8275 0023530  96.9839 263.3880 16.24929393  2946
FALCON 9 DEB            
1 52885U 22062BH  22186.87134755  .02373284  12037-4  56971-3 0  9996
2 52885  53.2127 310.7052 0019310  90.0668 270.2588 16.28161585  2941
FALCON 9 DEB            
1 52886U 22062BJ  22186.86077855  .03940360  12208-4  53761-3 0  9993
2 52886  53.2148 310.6286 0014892  80.2969 279.9759 16.34085163  2948
